NORAD_CAT_ID,OBJECT_NAME,OBJECT_TYPE,EPOCH,MEAN_MOTION,ECCENTRICITY,INCLINATION,RA_OF_ASC_NODE,ARG_OF_PERICENTER,MEAN_ANOMALY,BSTAR,MEAN_MOTION_DOT,MEAN_MOTION_DDOT,TLE_LINE0,TLE_LINE1,TLE_LINE2,SEMIMAJOR_AXIS,PERIOD,APOGEE,PERIGEE,DECAYED
54769.0,STARLINK-5404,PAYLOAD,2024-07-26 04:47:24,15.08838717,0.0001289,53.2158,179.4557,97.1244,262.9895,3.1927e-05,2.2e-06,0.0,0 STARLINK-5404,1 54769U 22175M   24208.19958990  .00000220  00000-0  31927-4 0  9994,2 54769  53.2158 179.4557 0001289  97.1244 262.9895 15.08838717 88467,6917.884,95.438,540.641,538.858,0.0
54769.0,STARLINK-5404,PAYLOAD,2024-07-26 07:58:10,15.08838585,0.0001627,53.2174,178.8616,117.7721,242.3436,4.2629e-05,3.9e-06,0.0,0 STARLINK-5404,1 54769U 22175M   24208.33206881  .00000390  00000-0  42629-4 0  9994,2 54769  53.2174 178.8616 0001627 117.7721 242.3436 15.08838585 90648,6917.885,95.438,540.875,538.624,0.0
54769.0,STARLINK-5404,PAYLOAD,2024-07-26 22:16:38,15.08845743,0.0001455,53.2173,176.1855,100.6744,259.4412,2.3904e-05,9.3e-07,0.0,0 STARLINK-5404,1 54769U 22175M   24208.92822482  .00000093  00000-0  23904-4 0  9995,2 54769  53.2173 176.1855 0001455 100.6744 259.4412 15.08845743 90735,6917.863,95.437,540.734,538.721,0.0
54769.0,STARLINK-5404,PAYLOAD,2024-07-27 04:38:11,15.08845365,0.0001447,53.2172,174.9983,88.1517,271.9641,3.4096e-05,2.55e-06,0.0,0 STARLINK-5404,1 54769U 22175M   24209.19318458  .00000255  00000-0  34096-4 0  9992,2 54769  53.2172 174.9983 0001447  88.1517 271.9641 15.08845365 88618,6917.864,95.437,540.73,538.728,0.0
54769.0,STARLINK-5404,PAYLOAD,2024-07-27 22:07:26,15.08821441,0.0001327,53.2161,171.7275,98.1792,261.935,0.00027802,4.137e-05,0.0,0 STARLINK-5404,1 54769U 22175M   24209.92183053  .00004137  00000-0  27802-3 0  9993,2 54769  53.2161 171.7275 0001327  98.1792 261.9350 15.08821441 90885,6917.937,95.439,540.72,538.884,0.0
54769.0,STARLINK-5404,PAYLOAD,2024-07-28 04:28:59,15.08828209,0.0001285,53.2163,170.5377,93.0259,267.088,-6.6619e-05,-1.348e-05,0.0,0 STARLINK-5404,1 54769U 22175M   24210.18679807 -.00001348  00000-0 -66619-4 0  9993,2 54769  53.2163 170.5377 0001285  93.0259 267.0880 15.08828209 88760,6917.916,95.438,540.67,538.892,0.0
54769.0,STARLINK-5404,PAYLOAD,2024-07-28 14:01:18,15.08832848,0.000129,53.2166,168.7534,92.5425,267.5715,-7.4034e-05,-1.466e-05,0.0,0 STARLINK-5404,1 54769U 22175M   24210.58423724 -.00001466  00000-0 -74034-4 0  9993,2 54769  53.2166 168.7534 0001290  92.5425 267.5715 15.08832848 90985,6917.902,95.438,540.66,538.875,0.0
54769.0,STARLINK-5404,PAYLOAD,2024-07-29 04:19:46,15.08837541,0.00013,53.2163,166.0763,88.4369,271.6772,1.5704e-06,-2.63e-06,0.0,0 STARLINK-5404,1 54769U 22175M   24211.18039457 -.00000263  00000-0  15704-5 0  9999,2 54769  53.2163 166.0763 0001300  88.4369 271.6772 15.08837541 88914,6917.888,95.438,540.652,538.854,0.0
54769.0,STARLINK-5404,PAYLOAD,2024-07-29 13:52:04,15.08839961,0.0001305,53.2165,164.2924,88.2681,271.8461,1.8773e-05,1.1e-07,0.0,0 STARLINK-5404,1 54769U 22175M   24211.57783321  .00000011  00000-0  18773-4 0  9996,2 54769  53.2165 164.2924 0001305  88.2681 271.8461 15.08839961 91138,6917.881,95.438,540.648,538.843,0.0
54769.0,STARLINK-5404,PAYLOAD,2024-07-29 20:13:37,15.08829827,0.0001369,53.2167,163.1037,85.2278,274.887,0.00012679,1.73e-05,0.0,0 STARLINK-5404,1 54769U 22175M   24211.84279631  .00001730  00000-0  12679-3 0  9997,2 54769  53.2167 163.1037 0001369  85.2278 274.8870 15.08829827 91173,6917.911,95.438,540.724,538.829,0.0
54769.0,STARLINK-5404,PAYLOAD,2024-07-30 13:42:51,15.08839184,0.0001383,53.2167,159.8327,85.444,274.671,0.00015353,2.156e-05,0.0,0 STARLINK-5404,1 54769U 22175M   24212.57143383  .00002156  00000-0  15353-3 0  9997,2 54769  53.2167 159.8327 0001383  85.4440 274.6710 15.08839184 91286,6917.883,95.438,540.705,538.791,0.0
54769.0,STARLINK-5404,PAYLOAD,2024-07-30 20:04:24,15.08839703,0.0001506,53.2175,158.6434,86.0724,274.044,8.6735e-05,1.093e-05,0.0,0 STARLINK-5404,1 54769U 22175M   24212.83639643  .00001093  00000-0  86735-4 0  9997,2 54769  53.2175 158.6434 0001506  86.0724 274.0440 15.08839703 89165,6917.881,95.438,540.788,538.704,0.0
54769.0,STARLINK-5404,PAYLOAD,2024-07-31 04:01:20,15.08841621,0.0001503,53.2173,157.1563,85.7399,274.3765,7.2844e-05,8.72e-06,0.0,0 STARLINK-5404,1 54769U 22175M   24213.16759625  .00000872  00000-0  72844-4 0  9997,2 54769  53.2173 157.1563 0001503  85.7399 274.3765 15.08841621 91372,6917.875,95.437,540.78,538.701,0.0
54769.0,STARLINK-5404,PAYLOAD,2024-07-31 19:55:11,15.08843395,0.0001534,53.2173,154.1824,85.9101,274.2067,8.1586e-05,1.011e-05,0.0,0 STARLINK-5404,1 54769U 22175M   24213.82999394  .00001011  00000-0  81586-4 0  9998,2 54769  53.2173 154.1824 0001534  85.9101 274.2067 15.08843395 91471,6917.87,95.437,540.796,538.674,0.0
54769.0,STARLINK-5404,PAYLOAD,2024-08-01 02:16:44,15.08842228,0.0001452,53.217,152.9922,87.8912,272.2247,4.3391e-05,4.03e-06,0.0,0 STARLINK-5404,1 54769U 22175M   24214.09495554  .00000403  00000-0  43391-4 0  9993,2 54769  53.2170 152.9922 0001452  87.8912 272.2247 15.08842228 89359,6917.874,95.437,540.743,538.734,0.0
54769.0,STARLINK-5404,PAYLOAD,2024-08-01 13:24:25,15.08846448,0.0001474,53.2171,150.9109,87.6929,272.4232,4.9006e-05,4.92e-06,0.0,0 STARLINK-5404,1 54769U 22175M   24214.55863162  .00000492  00000-0  49006-4 0  9995,2 54769  53.2171 150.9109 0001474  87.6929 272.4232 15.08846448 91587,6917.861,95.437,540.745,538.706,0.0
54769.0,STARLINK-5404,PAYLOAD,2024-08-02 02:07:30,15.08843517,0.0001739,53.2177,148.531,95.3824,264.7367,4.6121e-05,4.46e-06,0.0,0 STARLINK-5404,1 54769U 22175M   24215.08855280  .00000446  00000-0  46121-4 0  9990,2 54769  53.2177 148.5310 0001739  95.3824 264.7367 15.08843517 91660,6917.87,95.437,540.938,538.532,0.0
54769.0,STARLINK-5404,PAYLOAD,2024-08-02 22:47:31,15.08838861,0.0001372,53.2176,144.6641,105.5166,254.5978,2.5039e-05,1.11e-06,0.0,0 STARLINK-5404,1 54769U 22175M   24215.94967529  .00000111  00000-0  25039-4 0  9999,2 54769  53.2176 144.6641 0001372 105.5166 254.5978 15.08838861 91794,6917.884,95.438,540.698,538.8,0.0
54769.0,STARLINK-5404,PAYLOAD,2024-08-03 05:09:04,15.08834218,0.0001586,53.2183,143.4739,113.1399,246.976,-2.5206e-05,-6.89e-06,0.0,0 STARLINK-5404,1 54769U 22175M   24216.21463985 -.00000689  00000-0 -25206-4 0  9995,2 54769  53.2183 143.4739 0001586 113.1399 246.9760 15.08834218 89677,6917.898,95.438,540.86,538.666,0.0
54769.0,STARLINK-5404,PAYLOAD,2024-08-03 22:38:19,15.08836693,0.0001427,53.2178,140.2035,105.2063,254.9087,3.1762e-05,2.18e-06,0.0,0 STARLINK-5404,1 54769U 22175M   24216.94327800  .00000218  00000-0  31762-4 0  9990,2 54769  53.2178 140.2035 0001427 105.2063 254.9087 15.08836693 91942,6917.89,95.438,540.743,538.768,0.0
54769.0,STARLINK-5404,PAYLOAD,2024-08-04 11:21:23,15.0885162,0.000126,53.2168,137.8278,98.3511,261.7624,0.00010329,1.357e-05,0.0,0 STARLINK-5404,1 54769U 22175M   24217.47318601  .00001357  00000-0  10329-3 0  9998,2 54769  53.2168 137.8278 0001260  98.3511 261.7624 15.08851620 89865,6917.845,95.437,540.582,538.838,0.0
54769.0,STARLINK-5404,PAYLOAD,2024-08-04 19:18:20,15.08836976,0.0001941,53.2173,136.3403,101.994,258.1269,6.2011e-05,6.99e-06,0.0,0 STARLINK-5404,1 54769U 22175M   24217.80439821  .00000699  00000-0  62011-4 0  9997,2 54769  53.2173 136.3403 0001941 101.9940 258.1269 15.08836976 89916,6917.89,95.438,541.097,538.412,0.0
54769.0,STARLINK-5404,PAYLOAD,2024-08-04 22:29:06,15.08832706,0.0001603,53.2171,135.7449,91.9734,268.1441,3.3664e-05,2.48e-06,0.0,0 STARLINK-5404,1 54769U 22175M   24217.93688235  .00000248  00000-0  33664-4 0  9998,2 54769  53.2171 135.7449 0001603  91.9734 268.1441 15.08832706 92094,6917.903,95.438,540.877,538.659,0.0
54769.0,STARLINK-5404,PAYLOAD,2024-08-05 11:12:09,15.08854303,0.0001258,53.2174,133.3655,87.4561,272.6575,0.00020018,2.901e-05,0.0,0 STARLINK-5404,1 54769U 22175M   24218.46678211  .00002901  00000-0  20018-3 0  9996,2 54769  53.2174 133.3655 0001258  87.4561 272.6575 15.08854303 90019,6917.837,95.437,540.572,538.831,0.0
54769.0,STARLINK-5404,PAYLOAD,2024-08-05 22:19:55,15.08810779,0.0001295,53.217,131.2863,85.3573,274.7567,-0.00024327,-4.154e-05,0.0,0 STARLINK-5404,1 54769U 22175M   24218.93050758 -.00004154  00000-0 -24327-3 0  9999,2 54769  53.2170 131.2863 0001295  85.3573 274.7567 15.08810779 92244,6917.97,95.439,540.731,538.939,0.0
54769.0,STARLINK-5404,PAYLOAD,2024-08-06 03:06:05,15.08815564,0.0001337,53.2176,130.394,80.0687,280.0456,-0.00016031,-2.837e-05,0.0,0 STARLINK-5404,1 54769U 22175M   24219.12922554 -.00002837  00000-0 -16031-3 0  9992,2 54769  53.2176 130.3940 0001337  80.0687 280.0456 15.08815564 90119,6917.955,95.439,540.745,538.895,0.0
54769.0,STARLINK-5404,PAYLOAD,2024-08-06 17:24:32,15.08819112,9.43e-05,53.2157,127.7125,72.9772,287.1324,0.00012136,1.643e-05,0.0,0 STARLINK-5404,1 54769U 22175M   24219.72537707  .00001643  00000-0  12136-3 0  9994,2 54769  53.2157 127.7125 0000943  72.9772 287.1324 15.08819112 90205,6917.944,95.439,540.462,539.157,0.0
54769.0,STARLINK-5404,PAYLOAD,2024-08-06 22:10:41,15.08835438,0.0001607,53.2177,126.8301,79.0397,281.0776,9.6055e-05,1.241e-05,0.0,0 STARLINK-5404,1 54769U 22175M   24219.92409060  .00001241  00000-0  96055-4 0  9993,2 54769  53.2177 126.8301 0001607  79.0397 281.0776 15.08835438 92397,6917.894,95.438,540.871,538.648,0.0
54769.0,STARLINK-5404,PAYLOAD,2024-08-07 01:21:26,15.08854348,0.0001296,53.2172,126.2274,76.7411,283.3725,0.00020584,2.991e-05,0.0,0 STARLINK-5404,1 54769U 22175M   24220.05655478  .00002991  00000-0  20584-3 0  9991,2 54769  53.2172 126.2274 0001296  76.7411 283.3725 15.08854348 90253,6917.837,95.437,540.598,538.805,0.0
54769.0,STARLINK-5404,PAYLOAD,2024-08-08 02:47:37,15.08837291,0.000123,53.217,121.4715,89.5656,270.5477,0.00025661,3.798e-05,0.0,0 STARLINK-5404,1 54769U 22175M   24221.11640694  .00003798  00000-0  25661-3 0  9990,2 54769  53.2170 121.4715 0001230  89.5656 270.5477 15.08837291 92576,6917.889,95.438,540.605,538.903,0.0
